#aV2024  3  6  0  0  0.00000000     288 DD+AD WGS84 FIT  NGA
## 2304 259200.00000000   300.00000000 60375 0.0000000000000
+   32     1  2  3  4  5  6  7  8  9 10 11 12 13 14 15 16 17
+         18 19 20 21 22 23 24 25 26 27 28 29 30 31 32  0  0
+          0  0  0  0  0  0  0  0  0  0  0  0  0  0  0  0  0
+          0  0  0  0  0  0  0  0  0  0  0  0  0  0  0  0  0
+          0  0  0  0  0  0  0  0  0  0  0  0  0  0  0  0  0
++         2  2  2  2  2  2  2  2  2  2  2  2  2  2  2  2  2
++         2  2  2  2  2  2  2  2  2  2  2  2  2  2  2  0  0
++         0  0  0  0  0  0  0  0  0  0  0  0  0  0  0  0  0
++         0  0  0  0  0  0  0  0  0  0  0  0  0  0  0  0  0
++         0  0  0  0  0  0  0  0  0  0  0  0  0  0  0  0  0
%c cc cc ccc ccc cccc cccc cccc cccc ccccc ccccc ccccc ccccc
%c cc cc ccc ccc cccc cccc cccc cccc ccccc ccccc ccccc ccccc
%f  0.0000000  0.000000000  0.00000000000  0.000000000000000
%f  0.0000000  0.000000000  0.00000000000  0.000000000000000
%i    0    0    0    0      0      0      0      0         0
%i    0    0    0    0      0      0      0      0         0
/*      NGA, ST. LOUIS,MO.                                  
/*   EPHEMERIS COMPUTED FROM 2 DAYS OF DATA                 
/*   EPOCHA v9 SMOOTHER                                     
/*   G2296 IERS2010 SATIGS SATAPC                           
*  2024  3  6 16 45  0.00000000
P  1  10111.687498 -22677.597751  -9296.008984    172.616128                    
V  1   8507.472985  -7784.260404  29647.466590      0.018648                    
P  2  14907.065166 -21785.308064   1446.192316   -474.604857                    
V  2   1703.743881   2561.444071  32016.229426      0.060979                    
P  3  11038.201505 -12556.637460 -20753.025148    235.911062                    
V  3  25693.851305   4005.914948  11436.404528      0.230251                    
P  4   4791.666210 -19957.108734 -16764.234475    308.459683                    
V  4   9347.264718  19298.371106 -20413.351685      0.091611                    
P  5 -22605.853664   6670.659082  12159.570183   -164.390535                    
V  5 -15465.510069  -3250.134001 -26502.241055     -0.014284                    
P  6 -14191.657255  -5061.065656 -21817.412262    379.243607                    
V  6  16770.275454 -22135.396900  -5648.326461     -0.159650                    
P  7    -56.742904 -20386.596224  17262.604214    -78.086873                    
V  7  14415.895240 -15667.485443 -19475.251639     -0.088239                    
P  8  10449.283262 -12500.167674  20794.571221     35.301823                    
V  8  12161.726176  23846.487692   8605.716021      0.284486                    
P  9  -6694.424294 -24983.760811  -5985.664979    115.390871                    
V  9   5678.558289   5676.635524 -30503.592982      0.130183                    
P 10  21140.999439  10901.030690  12355.785742      0.627121                    
V 10 -15273.428671   -385.434136  26614.070901     -0.010842                    
P 11 -19943.631056   6397.751758 -16281.506635   -598.268627                    
V 11  11868.062023 -17084.216327 -21263.455160     -0.120547                    
P 12 -12659.201684  11958.991232 -20323.922661   -484.626515                    
V 12 -24529.118376  -5793.792844  12103.570679     -0.036295                    
P 13 -14677.892066   2705.385421  21773.940283    631.760583                    
V 13  -7224.907896 -27149.809519  -1265.241375      0.033919                    
P 14 -17822.521765 -13343.572647  14649.834767    343.625992                    
V 14  18655.728979    480.279378  22979.420362      0.098155                    
P 15  -9026.411068  13869.531951  20247.207607    134.849556                    
V 15 -15110.998642 -22363.085674   8583.677484      0.039787                    
P 16  25594.311094     28.309270   7593.767538   -347.300610                    
V 16   9277.307501   4328.623530 -29515.168548      0.086902                    
P 17 -12641.896190 -22180.965115  -6602.022060    714.655309                    
V 17   -531.211681  -9324.386687  30559.543048     -0.013663                    
P 18    -31.249180  19638.279659  17805.986712   -570.111326                    
V 18 -15117.354579  16892.554157 -18850.407128     -0.077574                    
P 19 -15653.713384 -15569.546991 -15213.779416    450.235204                    
V 19  -4000.500708 -18458.576957  22935.611208      0.053016                    
P 20 -26441.424008   1295.369722   -148.024241    384.929397                    
V 20     92.134263  -3236.005335 -31669.210330     -0.014270                    
P 21  17023.424396 -18722.684164   6579.501487    132.389015                    
V 21  -1319.140396   8571.547149  30917.137121     -0.014635                    
P 22 -22627.867211 -10961.638113   8509.140961     20.188764                    
V 22  10649.746071   -488.946206  29435.863253     -0.060158                    
P 23   9856.225015  14492.317096  20038.513451    171.121173                    
V 23 -25256.555029  -1515.045901  13349.394944      0.084577                    
P 24 -15119.034042  21394.851696   2273.371967   -442.401439                    
V 24  -1636.874197  -5023.706766  31245.749672     -0.056092                    
P 25   -507.457470  15620.799552 -21822.563753    490.575434                    
V 25 -26785.425423  -2842.744105  -1167.597013      0.010445                    
P 26  26112.033165   4258.958302  -4151.152706    182.639833                    
V 26  -5202.354046   3116.274335 -30267.193323     -0.043844                    
P 27  16172.010746    898.098380  20849.294847     -9.722172                    
V 27  10177.521485  25043.762533  -8432.575046     -0.029730                    
P 28  13040.334482   7862.838466 -21779.389132   -154.831572                    
V 28 -15781.302666  22653.697463  -1276.467968     -0.135858                    
P 29   3080.629021  25237.932607  -7546.952074   -605.478170                    
V 29  -5289.632235  -8271.629135 -30124.358719      0.008369                    
P 30  -9499.449104 -13200.997065  21095.809182   -423.421448                    
V 30  16687.586616 -20753.377975  -5776.433939      0.051812                    
P 31  18724.530606  -1895.886395 -19105.096624   -227.939699                    
V 31 -13738.257065  19350.651793 -15161.590707     -0.000849                    
P 32  15549.592524  19468.663832  -9284.566352   -614.815159                    
V 32   2582.139981  11982.490798  28612.109080     -0.014922                    
EOF
